NORAD_CAT_ID,OBJECT_NAME,OBJECT_TYPE,EPOCH,MEAN_MOTION,ECCENTRICITY,INCLINATION,RA_OF_ASC_NODE,ARG_OF_PERICENTER,MEAN_ANOMALY,BSTAR,MEAN_MOTION_DOT,MEAN_MOTION_DDOT,TLE_LINE0,TLE_LINE1,TLE_LINE2,SEMIMAJOR_AXIS,PERIOD,APOGEE,PERIGEE,DECAYED
52001.0,STARLINK-3659,PAYLOAD,2023-03-08 21:23:31,15.08847867,9.24e-05,53.2142,262.8421,110.5573,249.5518,0.00036808,5.576e-05,0.0,0 STARLINK-3659,1 52001U 22025AX  23067.89134069  .00005576  00000-0  36808-3 0  9998,2 52001  53.2142 262.8421 0000924 110.5573 249.5518 15.08847867 55344,6917.856,95.437,540.361,539.082,0.0
52001.0,STARLINK-3659,PAYLOAD,2023-03-09 00:34:17,15.08857229,0.0001224,53.2127,262.2468,80.4983,279.6147,0.00059076,9.131e-05,0.0,0 STARLINK-3659,1 52001U 22025AX  23068.02381851  .00009131  00000-0  59076-3 0  9990,2 52001  53.2127 262.2468 0001224  80.4983 279.6147 15.08857229 56892,6917.828,95.436,540.539,538.846,0.0
52001.0,STARLINK-3659,PAYLOAD,2023-03-09 19:38:55,15.08861078,9.78e-05,53.2134,258.6782,74.9736,285.1364,0.0017301,0.0002737,0.0,0 STARLINK-3659,1 52001U 22025AX  23068.81869819  .00027370  00000-0  17301-2 0  9991,2 52001  53.2134 258.6782 0000978  74.9736 285.1364 15.08861078 57012,6917.816,95.436,540.358,539.004,0.0
52001.0,STARLINK-3659,PAYLOAD,2023-03-09 21:14:18,15.08874095,0.0001125,53.2135,258.3808,74.5587,285.5529,0.0020738,0.00032902,0.0,0 STARLINK-3659,1 52001U 22025AX  23068.88493774  .00032902  00000-0  20738-2 0  9996,2 52001  53.2135 258.3808 0001125  74.5587 285.5529 15.08874095 55494,6917.776,95.435,540.419,538.863,0.0
52001.0,STARLINK-3659,PAYLOAD,2023-03-10 03:35:51,15.08830293,0.0001323,53.2138,257.1907,80.7042,279.41,-0.00048403,-7.981e-05,0.0,0 STARLINK-3659,1 52001U 22025AX  23069.14990209 -.00007981  00000-0 -48403-3 0  9992,2 52001  53.2138 257.1907 0001323  80.7042 279.4100 15.08830293 57063,6917.91,95.438,540.69,538.86,0.0
52001.0,STARLINK-3659,PAYLOAD,2023-03-10 19:29:42,15.0884303,0.0001071,53.2139,254.2178,93.1916,266.9199,0.0014603,0.00023031,0.0,0 STARLINK-3659,1 52001U 22025AX  23069.81230281  .00023031  00000-0  14603-2 0  9999,2 52001  53.2139 254.2178 0001071  93.1916 266.9199 15.08843030 57163,6917.871,95.437,540.477,538.995,0.0
52001.0,STARLINK-3659,PAYLOAD,2023-03-10 21:05:06,15.08845158,0.0001073,53.2136,253.92,96.091,264.0205,0.0016053,0.00025356,0.0,0 STARLINK-3659,1 52001U 22025AX  23069.87854246  .00025356  00000-0  16053-2 0  9991,2 52001  53.2136 253.9200 0001073  96.0910 264.0205 15.08845158 55641,6917.865,95.437,540.472,538.987,0.0
52001.0,STARLINK-3659,PAYLOAD,2023-03-11 03:26:38,15.08830841,0.0001198,53.2133,252.7299,77.8859,282.2267,0.00032758,4.928e-05,0.0,0 STARLINK-3659,1 52001U 22025AX  23070.14350528  .00004928  00000-0  32758-3 0  9990,2 52001  53.2133 252.7299 0001198  77.8859 282.2267 15.08830841 57218,6917.908,95.438,540.602,538.945,0.0
52001.0,STARLINK-3659,PAYLOAD,2023-03-11 12:58:57,15.08839056,0.0001006,53.2134,250.9458,82.5376,277.573,0.00069581,0.00010803,0.0,0 STARLINK-3659,1 52001U 22025AX  23070.54094592  .00010803  00000-0  69581-3 0  9993,2 52001  53.2134 250.9458 0001006  82.5376 277.5730 15.08839056 55746,6917.883,95.438,540.444,539.052,0.0
52001.0,STARLINK-3659,PAYLOAD,2023-03-11 22:31:16,15.08854468,0.0001027,53.2134,249.1617,80.5225,279.5884,0.0015357,0.00024247,0.0,0 STARLINK-3659,1 52001U 22025AX  23070.93838475  .00024247  00000-0  15357-2 0  9990,2 52001  53.2134 249.1617 0001027  80.5225 279.5884 15.08854468 55800,6917.836,95.437,540.412,538.991,0.0
52001.0,STARLINK-3659,PAYLOAD,2023-03-12 00:06:39,15.08857329,0.0001027,53.2133,248.8643,81.5414,278.5695,0.001575,0.00024879,0.0,0 STARLINK-3659,1 52001U 22025AX  23071.00462405  .00024879  00000-0  15750-2 0  9993,2 52001  53.2133 248.8643 0001027  81.5414 278.5695 15.08857329 57344,6917.827,95.436,540.403,538.982,0.0
52001.0,STARLINK-3659,PAYLOAD,2023-03-12 12:49:45,15.08822181,0.0001035,53.2131,246.4856,82.6818,277.4292,0.00081247,0.0001266,0.0,0 STARLINK-3659,1 52001U 22025AX  23071.53455799  .00012660  00000-0  81247-3 0  9999,2 52001  53.2131 246.4856 0001035  82.6818 277.4292 15.08822181 57429,6917.935,95.439,540.516,539.084,0.0
52001.0,STARLINK-3659,PAYLOAD,2023-03-12 22:22:04,15.08831197,0.0001027,53.2132,244.7018,81.4545,278.6564,0.0016453,0.00025988,0.0,0 STARLINK-3659,1 52001U 22025AX  23071.93200219  .00025988  00000-0  16453-2 0  9991,2 52001  53.2132 244.7018 0001027  81.4545 278.6564 15.08831197 55954,6917.907,95.438,540.483,539.062,0.0
52001.0,STARLINK-3659,PAYLOAD,2023-03-13 11:05:09,15.0886068,0.0001046,53.2134,242.3223,78.8005,281.3105,0.0015597,0.00024636,0.0,0 STARLINK-3659,1 52001U 22025AX  23072.46191871  .00024636  00000-0  15597-2 0  9990,2 52001  53.2134 242.3223 0001046  78.8005 281.3105 15.08860680 57560,6917.817,95.436,540.406,538.959,0.0
52001.0,STARLINK-3659,PAYLOAD,2023-03-13 20:37:27,15.08884638,0.0001075,53.2136,240.5386,71.8851,288.2258,0.0017012,0.00026924,0.0,0 STARLINK-3659,1 52001U 22025AX  23072.85934907  .00026924  00000-0  17012-2 0  9994,2 52001  53.2136 240.5386 0001075  71.8851 288.2258 15.08884638 56097,6917.744,95.435,540.353,538.865,0.0
52001.0,STARLINK-3659,PAYLOAD,2023-03-14 01:23:37,15.08849273,0.000158,53.2134,239.6465,59.473,300.6417,-0.00028439,-4.812e-05,0.0,0 STARLINK-3659,1 52001U 22025AX  23073.05807277 -.00004812  00000-0 -28439-3 0  9996,2 52001  53.2134 239.6465 0001580  59.4730 300.6417 15.08849273 57656,6917.852,95.437,540.81,538.624,0.0
52001.0,STARLINK-3659,PAYLOAD,2023-03-14 12:31:18,15.08852217,9.95e-05,53.2136,237.5642,86.6879,273.4227,0.00050024,7.685e-05,0.0,0 STARLINK-3659,1 52001U 22025AX  23073.52174695  .00007685  00000-0  50024-3 0  9993,2 52001  53.2136 237.5642 0000995  86.6879 273.4227 15.08852217 56193,6917.843,95.437,540.396,539.02,0.0
52001.0,STARLINK-3659,PAYLOAD,2023-03-14 20:28:14,15.0886494,9.99e-05,53.2138,236.0774,86.8862,273.2245,0.0020616,0.00032697,0.0,0 STARLINK-3659,1 52001U 22025AX  23073.85294512  .00032697  00000-0  20616-2 0  9994,2 52001  53.2138 236.0774 0000999  86.8862 273.2245 15.08864940 57772,6917.804,95.436,540.36,538.978,0.0
52001.0,STARLINK-3659,PAYLOAD,2023-03-15 10:46:42,15.08858126,0.0001064,53.2137,233.401,88.023,272.0884,0.0010546,0.00016544,0.0,0 STARLINK-3659,1 52001U 22025AX  23074.44910380  .00016544  00000-0  10546-2 0  9992,2 52001  53.2137 233.4010 0001064  88.0230 272.0884 15.08858126 57867,6917.825,95.436,540.426,538.954,0.0
52001.0,STARLINK-3659,PAYLOAD,2023-03-15 12:22:05,15.08862163,0.0001087,53.2137,233.1038,90.6717,269.44,0.0015482,0.00024452,0.0,0 STARLINK-3659,1 52001U 22025AX  23074.51534380  .00024452  00000-0  15482-2 0  9993,2 52001  53.2137 233.1038 0001087  90.6717 269.4400 15.08862163 56340,6917.813,95.436,540.43,538.926,0.0
52001.0,STARLINK-3659,PAYLOAD,2023-03-15 20:19:00,15.08878641,0.0001093,53.2138,231.6171,90.2409,269.8708,0.001993,0.00031607,0.0,0 STARLINK-3659,1 52001U 22025AX  23074.84653675  .00031607  00000-0  19930-2 0  9990,2 52001  53.2138 231.6171 0001093  90.2409 269.8708 15.08878641 56391,6917.762,95.435,540.383,538.871,0.0
52001.0,STARLINK-3659,PAYLOAD,2023-03-15 21:54:23,15.08884977,0.0001112,53.2137,231.3192,92.3912,267.7207,0.0021037,0.00033393,0.0,0 STARLINK-3659,1 52001U 22025AX  23074.91277463  .00033393  00000-0  21037-2 0  9990,2 52001  53.2137 231.3192 0001112  92.3912 267.7207 15.08884977 57935,6917.743,95.435,540.377,538.839,0.0
52001.0,STARLINK-3659,PAYLOAD,2023-03-16 12:12:53,15.08829962,0.0001522,53.2137,228.6431,88.1923,271.9243,0.00039277,5.967e-05,0.0,0 STARLINK-3659,1 52001U 22025AX  23075.50894693  .00005967  00000-0  39277-3 0  9998,2 52001  53.2137 228.6431 0001522  88.1923 271.9243 15.08829962 58021,6917.911,95.438,540.829,538.723,0.0
52001.0,STARLINK-3659,PAYLOAD,2023-03-16 20:09:49,15.08827924,0.0001048,53.2137,227.1563,67.7796,292.3307,0.0015444,0.00024368,0.0,0 STARLINK-3659,1 52001U 22025AX  23075.84015323  .00024368  00000-0  15444-2 0  9995,2 52001  53.2137 227.1563 0001048  67.7796 292.3307 15.08827924 56544,6917.917,95.438,540.507,539.057,0.0
52001.0,STARLINK-3659,PAYLOAD,2023-03-17 02:31:22,15.08818827,0.0001597,53.2137,225.9671,63.0807,297.0348,0.00097977,0.0001533,0.0,0 STARLINK-3659,1 52001U 22025AX  23076.10511943  .00015330  00000-0  97977-3 0  9995,2 52001  53.2137 225.9671 0001597  63.0807 297.0348 15.08818827 58115,6917.945,95.439,540.915,538.705,0.0
52001.0,STARLINK-3659,PAYLOAD,2023-03-17 12:03:41,15.08838639,0.0001416,53.2137,224.1823,79.3095,280.8057,0.0010296,0.00016135,0.0,0 STARLINK-3659,1 52001U 22025AX  23076.50256015  .00016135  00000-0  10296-2 0  9997,2 52001  53.2137 224.1823 0001416  79.3095 280.8057 15.08838639 56640,6917.885,95.438,540.729,538.77,0.0
52001.0,STARLINK-3659,PAYLOAD,2023-03-17 16:49:50,15.08846662,0.0001436,53.2136,223.2911,64.5959,295.5182,0.0012932,0.00020357,0.0,0 STARLINK-3659,1 52001U 22025AX  23076.70127996  .00020357  00000-0  12932-2 0  9994,2 52001  53.2136 223.2911 0001436  64.5959 295.5182 15.08846662 56674,6917.86,95.437,540.718,538.732,0.0
52001.0,STARLINK-3659,PAYLOAD,2023-03-18 18:15:59,15.08869082,0.0001316,53.214,218.5345,74.112,286.0017,0.00089921,0.00014063,0.0,0 STARLINK-3659,1 52001U 22025AX  23077.76110969  .00014063  00000-0  89921-3 0  9993,2 52001  53.2140 218.5345 0001316  74.1120 286.0017 15.08869082 58362,6917.791,95.436,540.567,538.746,0.0
52001.0,STARLINK-3659,PAYLOAD,2023-03-19 02:12:55,15.08855148,0.0001054,53.2133,217.0465,78.8483,281.2627,0.00020732,3.015e-05,0.0,0 STARLINK-3659,1 52001U 22025AX  23078.09230839  .00003015  00000-0  20732-3 0  9999,2 52001  53.2133 217.0465 0001054  78.8483 281.2627 15.08855148 58411,6917.834,95.437,540.428,538.97,0.0
52001.0,STARLINK-3659,PAYLOAD,2023-03-19 13:20:37,15.08848957,0.0001285,53.2142,214.9659,85.5391,274.5748,0.00011772,1.587e-05,0.0,0 STARLINK-3659,1 52001U 22025AX  23078.55598944  .00001587  00000-0  11772-3 0  9990,2 52001  53.2142 214.9659 0001285  85.5391 274.5748 15.08848957 56957,6917.853,95.437,540.607,538.829,0.0
